{"fetchedAt":"2026-06-29T18:07:57.466Z","satellites":[{"id":"45446","name":"ONEWEB-0068","constellationId":"oneweb","omm":{"OBJECT_NAME":"ONEWEB-0068","OBJECT_ID":"2020-020Y","EPOCH":"2026-06-29T12:19:19.105248","MEAN_MOTION":13.11418122,"ECCENTRICITY":0.0001643,"INCLINATION":87.8888,"RA_OF_ASC_NODE":18.6105,"ARG_OF_PERICENTER":84.3061,"MEAN_ANOMALY":275.8254,"EPHEMERIS_TYPE":0,"CLASSIFICATION_TYPE":"U","NORAD_CAT_ID":45446,"ELEMENT_SET_NO":999,"REV_AT_EPOCH":30421,"BSTAR":-0.000792,"MEAN_MOTION_DOT":-0.00000268,"MEAN_MOTION_DDOT":0}},{"id":"45447","name":"ONEWEB-0046","constellationId":"oneweb","omm":{"OBJECT_NAME":"ONEWEB-0046","OBJECT_ID":"2020-020Z","EPOCH":"2026-06-29T12:07:18.033312","MEAN_MOTION":13.11417107,"ECCENTRICITY":0.0001854,"INCLINATION":87.8878,"RA_OF_ASC_NODE":18.6172,"ARG_OF_PERICENTER":79.5177,"MEAN_ANOMALY":280.6159,"EPHEMERIS_TYPE":0,"CLASSIFICATION_TYPE":"U","NORAD_CAT_ID":45447,"ELEMENT_SET_NO":999,"REV_AT_EPOCH":30422,"BSTAR":-0.0012909,"MEAN_MOTION_DOT":-0.00000445,"MEAN_MOTION_DDOT":0}},{"id":"45448","name":"ONEWEB-0063","constellationId":"oneweb","omm":{"OBJECT_NAME":"ONEWEB-0063","OBJECT_ID":"2020-020AA","EPOCH":"2026-06-29T12:49:01.405056","MEAN_MOTION":13.1141643,"ECCENTRICITY":0.0002079,"INCLINATION":87.8889,"RA_OF_ASC_NODE":18.611,"ARG_OF_PERICENTER":82.9389,"MEAN_ANOMALY":277.1975,"EPHEMERIS_TYPE":0,"CLASSIFICATION_TYPE":"U","NORAD_CAT_ID":45448,"ELEMENT_SET_NO":999,"REV_AT_EPOCH":30431,"BSTAR":0.0014167,"MEAN_MOTION_DOT":0.00000515,"MEAN_MOTION_DDOT":0}},{"id":"45449","name":"ONEWEB-0019","constellationId":"oneweb","omm":{"OBJECT_NAME":"ONEWEB-0019","OBJECT_ID":"2020-020AB","EPOCH":"2026-06-29T11:54:53.649792","MEAN_MOTION":13.11416561,"ECCENTRICITY":0.0001839,"INCLINATION":87.8879,"RA_OF_ASC_NODE":18.6041,"ARG_OF_PERICENTER":92.7333,"MEAN_ANOMALY":267.4006,"EPHEMERIS_TYPE":0,"CLASSIFICATION_TYPE":"U","NORAD_CAT_ID":45449,"ELEMENT_SET_NO":999,"REV_AT_EPOCH":30415,"BSTAR":-0.001235,"MEAN_MOTION_DOT":-0.00000425,"MEAN_MOTION_DDOT":0}},{"id":"45450","name":"ONEWEB-0094","constellationId":"oneweb","omm":{"OBJECT_NAME":"ONEWEB-0094","OBJECT_ID":"2020-020AC","EPOCH":"2026-06-29T12:06:37.821888","MEAN_MOTION":13.1764851,"ECCENTRICITY":0.000166,"INCLINATION":87.9142,"RA_OF_ASC_NODE":3.3993,"ARG_OF_PERICENTER":93.1225,"MEAN_ANOMALY":267.0097,"EPHEMERIS_TYPE":0,"CLASSIFICATION_TYPE":"U","NORAD_CAT_ID":45450,"ELEMENT_SET_NO":999,"REV_AT_EPOCH":30793,"BSTAR":0.00011687,"MEAN_MOTION_DOT":5.8e-7,"MEAN_MOTION_DDOT":0}},{"id":"45451","name":"ONEWEB-0087","constellationId":"oneweb","omm":{"OBJECT_NAME":"ONEWEB-0087","OBJECT_ID":"2020-020AD","EPOCH":"2026-06-29T13:03:16.339104","MEAN_MOTION":13.11416051,"ECCENTRICITY":0.0001534,"INCLINATION":87.8898,"RA_OF_ASC_NODE":18.5841,"ARG_OF_PERICENTER":83.9296,"MEAN_ANOMALY":276.2006,"EPHEMERIS_TYPE":0,"CLASSIFICATION_TYPE":"U","NORAD_CAT_ID":45451,"ELEMENT_SET_NO":999,"REV_AT_EPOCH":30420,"BSTAR":0.0015588,"MEAN_MOTION_DOT":0.00000565,"MEAN_MOTION_DDOT":0}},{"id":"45452","name":"ONEWEB-0082","constellationId":"oneweb","omm":{"OBJECT_NAME":"ONEWEB-0082","OBJECT_ID":"2020-020AE","EPOCH":"2026-06-29T12:58:23.704032","MEAN_MOTION":13.11416511,"ECCENTRICITY":0.0001565,"INCLINATION":87.8888,"RA_OF_ASC_NODE":18.6003,"ARG_OF_PERICENTER":73.581,"MEAN_ANOMALY":286.549,"EPHEMERIS_TYPE":0,"CLASSIFICATION_TYPE":"U","NORAD_CAT_ID":45452,"ELEMENT_SET_NO":999,"REV_AT_EPOCH":30429,"BSTAR":0.001646,"MEAN_MOTION_DOT":0.00000596,"MEAN_MOTION_DDOT":0}},{"id":"45453","name":"ONEWEB-0050","constellationId":"oneweb","omm":{"OBJECT_NAME":"ONEWEB-0050","OBJECT_ID":"2020-020AF","EPOCH":"2026-06-29T03:51:33.244416","MEAN_MOTION":14.90424832,"ECCENTRICITY":0.0001092,"INCLINATION":88.929,"RA_OF_ASC_NODE":231.5851,"ARG_OF_PERICENTER":344.294,"MEAN_ANOMALY":15.8255,"EPHEMERIS_TYPE":0,"CLASSIFICATION_TYPE":"U","NORAD_CAT_ID":45453,"ELEMENT_SET_NO":999,"REV_AT_EPOCH":34216,"BSTAR":0.00020667,"MEAN_MOTION_DOT":0.00002034,"MEAN_MOTION_DDOT":0}},{"id":"45454","name":"ONEWEB-0034","constellationId":"oneweb","omm":{"OBJECT_NAME":"ONEWEB-0034","OBJECT_ID":"2020-020AG","EPOCH":"2026-06-29T12:02:37.424256","MEAN_MOTION":13.11416089,"ECCENTRICITY":0.0001823,"INCLINATION":87.8887,"RA_OF_ASC_NODE":18.6177,"ARG_OF_PERICENTER":87.0035,"MEAN_ANOMALY":273.1302,"EPHEMERIS_TYPE":0,"CLASSIFICATION_TYPE":"U","NORAD_CAT_ID":45454,"ELEMENT_SET_NO":999,"REV_AT_EPOCH":30420,"BSTAR":-0.0014948,"MEAN_MOTION_DOT":-0.00000517,"MEAN_MOTION_DDOT":0}},{"id":"45455","name":"ONEWEB-0060","constellationId":"oneweb","omm":{"OBJECT_NAME":"ONEWEB-0060","OBJECT_ID":"2020-020AH","EPOCH":"2026-06-29T12:47:36.352032","MEAN_MOTION":13.11416528,"ECCENTRICITY":0.0000821,"INCLINATION":87.8881,"RA_OF_ASC_NODE":18.6081,"ARG_OF_PERICENTER":81.9807,"MEAN_ANOMALY":278.1414,"EPHEMERIS_TYPE":0,"CLASSIFICATION_TYPE":"U","NORAD_CAT_ID":45455,"ELEMENT_SET_NO":999,"REV_AT_EPOCH":30416,"BSTAR":0.0013858,"MEAN_MOTION_DOT":0.00000504,"MEAN_MOTION_DDOT":0}},{"id":"45456","name":"ONEWEB-0086","constellationId":"oneweb","omm":{"OBJECT_NAME":"ONEWEB-0086","OBJECT_ID":"2020-020AJ","EPOCH":"2026-06-29T12:16:52.557888","MEAN_MOTION":13.1141835,"ECCENTRICITY":0.0001234,"INCLINATION":87.8889,"RA_OF_ASC_NODE":18.6091,"ARG_OF_PERICENTER":108.0811,"MEAN_ANOMALY":252.0451,"EPHEMERIS_TYPE":0,"CLASSIFICATION_TYPE":"U","NORAD_CAT_ID":45456,"ELEMENT_SET_NO":999,"REV_AT_EPOCH":30422,"BSTAR":-0.00087504,"MEAN_MOTION_DOT":-0.00000297,"MEAN_MOTION_DDOT":0}},{"id":"45457","name":"ONEWEB-0088","constellationId":"oneweb","omm":{"OBJECT_NAME":"ONEWEB-0088","OBJECT_ID":"2020-020AK","EPOCH":"2026-06-29T11:45:19.232352","MEAN_MOTION":13.11414433,"ECCENTRICITY":0.000202,"INCLINATION":87.8894,"RA_OF_ASC_NODE":18.5869,"ARG_OF_PERICENTER":77.0577,"MEAN_ANOMALY":283.0777,"EPHEMERIS_TYPE":0,"CLASSIFICATION_TYPE":"U","NORAD_CAT_ID":45457,"ELEMENT_SET_NO":999,"REV_AT_EPOCH":30415,"BSTAR":-0.00083167,"MEAN_MOTION_DOT":-0.00000282,"MEAN_MOTION_DDOT":0}},{"id":"47258","name":"ONEWEB-0102","constellationId":"oneweb","omm":{"OBJECT_NAME":"ONEWEB-0102","OBJECT_ID":"2020-100A","EPOCH":"2026-06-29T11:37:30.675648","MEAN_MOTION":13.12441983,"ECCENTRICITY":0.000177,"INCLINATION":87.8946,"RA_OF_ASC_NODE":348.2285,"ARG_OF_PERICENTER":102.6082,"MEAN_ANOMALY":257.5244,"EPHEMERIS_TYPE":0,"CLASSIFICATION_TYPE":"U","NORAD_CAT_ID":47258,"ELEMENT_SET_NO":999,"REV_AT_EPOCH":26634,"BSTAR":-0.00074312,"MEAN_MOTION_DOT":-0.00000255,"MEAN_MOTION_DDOT":0}},{"id":"47259","name":"ONEWEB-0109","constellationId":"oneweb","omm":{"OBJECT_NAME":"ONEWEB-0109","OBJECT_ID":"2020-100B","EPOCH":"2026-06-29T09:59:55.635360","MEAN_MOTION":13.12442262,"ECCENTRICITY":0.0001937,"INCLINATION":87.8955,"RA_OF_ASC_NODE":348.2268,"ARG_OF_PERICENTER":96.9687,"MEAN_ANOMALY":263.1662,"EPHEMERIS_TYPE":0,"CLASSIFICATION_TYPE":"U","NORAD_CAT_ID":47259,"ELEMENT_SET_NO":999,"REV_AT_EPOCH":26616,"BSTAR":-0.0010745,"MEAN_MOTION_DOT":-0.00000374,"MEAN_MOTION_DDOT":0}},{"id":"47260","name":"ONEWEB-0110","constellationId":"oneweb","omm":{"OBJECT_NAME":"ONEWEB-0110","OBJECT_ID":"2020-100C","EPOCH":"2026-06-29T12:28:45.838272","MEAN_MOTION":13.1244349,"ECCENTRICITY":0.0001567,"INCLINATION":87.8955,"RA_OF_ASC_NODE":348.1905,"ARG_OF_PERICENTER":98.4693,"MEAN_ANOMALY":261.6613,"EPHEMERIS_TYPE":0,"CLASSIFICATION_TYPE":"U","NORAD_CAT_ID":47260,"ELEMENT_SET_NO":999,"REV_AT_EPOCH":26634,"BSTAR":0.001632,"MEAN_MOTION_DOT":0.000006,"MEAN_MOTION_DDOT":0}}]}