[
  {
    "name": "ONEWEB-0068",
    "noradId": "45446",
    "line1": "1 45446U 20020Y   26180.51341557 -.00000268  00000+0 -79200-3 0  9993",
    "line2": "2 45446  87.8888  18.6105 0001643  84.3061 275.8254 13.11418122304216"
  },
  {
    "name": "ONEWEB-0046",
    "noradId": "45447",
    "line1": "1 45447U 20020Z   26180.50506983 -.00000445  00000+0 -12909-2 0  9998",
    "line2": "2 45447  87.8878  18.6172 0001854  79.5177 280.6159 13.11417107304229"
  },
  {
    "name": "ONEWEB-0063",
    "noradId": "45448",
    "line1": "1 45448U 20020AA  26180.53404404  .00000515  00000+0  14167-2 0  9991",
    "line2": "2 45448  87.8889  18.6110 0002079  82.9389 277.1975 13.11416430304312"
  },
  {
    "name": "ONEWEB-0019",
    "noradId": "45449",
    "line1": "1 45449U 20020AB  26180.49645428 -.00000425  00000+0 -12350-2 0  9994",
    "line2": "2 45449  87.8879  18.6041 0001839  92.7333 267.4006 13.11416561304150"
  },
  {
    "name": "ONEWEB-0094",
    "noradId": "45450",
    "line1": "1 45450U 20020AC  26180.50460442  .00000058  00000+0  11687-3 0  9992",
    "line2": "2 45450  87.9142   3.3993 0001660  93.1225 267.0097 13.17648510307932"
  },
  {
    "name": "ONEWEB-0087",
    "noradId": "45451",
    "line1": "1 45451U 20020AD  26180.54393911  .00000565  00000+0  15588-2 0  9999",
    "line2": "2 45451  87.8898  18.5841 0001534  83.9296 276.2006 13.11416051304201"
  },
  {
    "name": "ONEWEB-0082",
    "noradId": "45452",
    "line1": "1 45452U 20020AE  26180.54055213  .00000596  00000+0  16460-2 0  9994",
    "line2": "2 45452  87.8888  18.6003 0001565  73.5810 286.5490 13.11416511304294"
  },
  {
    "name": "ONEWEB-0050",
    "noradId": "45453",
    "line1": "1 45453U 20020AF  26180.16080144  .00002034  00000+0  20667-3 0  9998",
    "line2": "2 45453  88.9290 231.5851 0001092 344.2940  15.8255 14.90424832342161"
  },
  {
    "name": "ONEWEB-0034",
    "noradId": "45454",
    "line1": "1 45454U 20020AG  26180.50182204 -.00000517  00000+0 -14948-2 0  9997",
    "line2": "2 45454  87.8887  18.6177 0001823  87.0035 273.1302 13.11416089304208"
  },
  {
    "name": "ONEWEB-0060",
    "noradId": "45455",
    "line1": "1 45455U 20020AH  26180.53305963  .00000504  00000+0  13858-2 0  9993",
    "line2": "2 45455  87.8881  18.6081 0000821  81.9807 278.1414 13.11416528304166"
  },
  {
    "name": "ONEWEB-0086",
    "noradId": "45456",
    "line1": "1 45456U 20020AJ  26180.51171942 -.00000297  00000+0 -87504-3 0  9991",
    "line2": "2 45456  87.8889  18.6091 0001234 108.0811 252.0451 13.11418350304225"
  },
  {
    "name": "ONEWEB-0088",
    "noradId": "45457",
    "line1": "1 45457U 20020AK  26180.48980593 -.00000282  00000+0 -83167-3 0  9993",
    "line2": "2 45457  87.8894  18.5869 0002020  77.0577 283.0777 13.11414433304157"
  },
  {
    "name": "ONEWEB-0102",
    "noradId": "47258",
    "line1": "1 47258U 20100A   26180.48438282 -.00000255  00000+0 -74312-3 0  9998",
    "line2": "2 47258  87.8946 348.2285 0001770 102.6082 257.5244 13.12441983266342"
  },
  {
    "name": "ONEWEB-0109",
    "noradId": "47259",
    "line1": "1 47259U 20100B   26180.41661615 -.00000374  00000+0 -10745-2 0  9991",
    "line2": "2 47259  87.8955 348.2268 0001937  96.9687 263.1662 13.12442262266163"
  },
  {
    "name": "ONEWEB-0110",
    "noradId": "47260",
    "line1": "1 47260U 20100C   26180.51997498  .00000600  00000+0  16320-2 0  9990",
    "line2": "2 47260  87.8955 348.1905 0001567  98.4693 261.6613 13.12443490266348"
  }
]